{"spkid": "50781367", "covariance": {"elements": [{"units": null, "title": "eccentricity", "value": ".6147069738697996", "sigma": 7.58910180407683e-08, "name": "e", "label": "e"}, {"value": ".4717575702743236", "title": "perihelion distance", "units": "au", "sigma": 1.04795345129523e-07, "name": "q", "label": "q"}, {"label": "tp", "units": "TDB", "title": "time of perihelion passage", "value": "2457915.675658274305", "sigma": 4.12510529626109e-05, "name": "tp"}, {"label": "node", "units": "deg", "title": "longitude of the ascending node", "value": "329.2868203220949", "name": "om", "sigma": 7.38992702276306e-05}, {"label": "peri", "units": "deg", "title": "argument of perihelion", "value": "241.1995997212566", "name": "w", "sigma": 7.32643875612457e-05}, {"label": "i", "name": "i", "sigma": 7.17015933047509e-06, "units": "deg", "value": "3.013892860626711", "title": "inclination"}], "data": [["5.759446619264218E-15", "-7.935760377969609E-15", "2.732726922580352E-12", "1.317764600051922E-12", "-7.517864582934326E-13", "1.59716536270602E-13"], ["-7.935760377969609E-15", "1.098206436081588E-14", "-3.887366153331881E-12", "-1.718961286511993E-12", "9.056307323437767E-13", "-1.951719371761739E-13"], ["2.732726922580352E-12", "-3.887366153331881E-12", "1.701649370524127E-9", "5.489639303576965E-10", "-1.655115854355723E-10", "4.3261680563645E-11"], ["1.317764600051922E-12", "-1.718961286511993E-12", "5.489639303576965E-10", "5.461102140176367E-9", "-5.363920169597055E-9", "5.941815540217488E-11"], ["-7.517864582934326E-13", "9.056307323437767E-13", "-1.655115854355723E-10", "-5.363920169597055E-9", "5.367670484724407E-9", "-5.66020045387822E-11"], ["1.59716536270602E-13", "-1.951719371761739E-13", "4.3261680563645E-11", "5.941815540217488E-11", "-5.66020045387822E-11", "5.141118482439905E-11"]], "labels": ["e", "q", "tp", "node", "peri", "i"], "epoch": "2458080.5"}, "elements": [{"sigma": "7.6653E-8", "name": "e", "title": "eccentricity", "value": ".6145325945825488", "units": null, "label": "e"}, {"units": "au", "value": "1.224261719051189", "title": "semi-major axis", "sigma": "2.9006E-8", "name": "a", "label": "a"}, {"title": "perihelion distance", "value": ".4719129883945704", "units": "au", "sigma": "1.0379E-7", "name": "q", "label": "q"}, {"label": "i", "units": "deg", "title": "inclination; angle with respect to x-y ecliptic plane", "value": "3.011983862714952", "name": "i", "sigma": "7.162E-6"}, {"units": "deg", "title": "longitude of the ascending node", "value": "329.0922836735904", "sigma": "7.4008E-5", "name": "om", "label": "node"}, {"title": "argument of perihelion", "value": "241.39699570942", "units": "deg", "sigma": "7.3352E-5", "name": "w", "label": "peri"}, {"label": "M", "units": "deg", "title": "mean anomaly", "value": "229.5200615459743", "sigma": "6.596E-5", "name": "ma"}, {"units": "TDB", "title": "time of perihelion passage", "value": "2461379.829226056006", "sigma": "9.6978E-5", "name": "tp", "label": "tp"}, {"label": "period", "sigma": "1.7584E-5", "name": "per", "value": "494.777374553325", "title": "sidereal orbital period", "units": "d"}, {"label": "n", "value": ".7275999641758087", "title": "mean motion", "units": "deg/d", "sigma": "2.5858E-8", "name": "n"}, {"label": "Q", "name": "ad", "sigma": "4.6831E-8", "units": "au", "value": "1.976610449707807", "title": "aphelion distance"}], "epoch": "2461200.5"}